[{"OBJECT_NAME":"STARLINK-33711","OBJECT_ID":"2025-065F","EPOCH":"2026-03-09T19:28:38.802144","MEAN_MOTION":15.27598715,"ECCENTRICITY":0.00022486,"INCLINATION":43.0051,"RA_OF_ASC_NODE":105.9596,"ARG_OF_PERICENTER":269.6404,"MEAN_ANOMALY":90.419,"EPHEMERIS_TYPE":0,"CLASSIFICATION_TYPE":"U","NORAD_CAT_ID":63404,"ELEMENT_SET_NO":999,"REV_AT_EPOCH":5286,"BSTAR":0.00076505092,"MEAN_MOTION_DOT":0.00020862,"MEAN_MOTION_DDOT":0},{"OBJECT_NAME":"QAEM 100 R\/B","OBJECT_ID":"2024-165A","EPOCH":"2026-03-09T23:28:11.930304","MEAN_MOTION":15.14187295,"ECCENTRICITY":0.0059581,"INCLINATION":64.0756,"RA_OF_ASC_NODE":359.5576,"ARG_OF_PERICENTER":312.0209,"MEAN_ANOMALY":47.5844,"EPHEMERIS_TYPE":0,"CLASSIFICATION_TYPE":"U","NORAD_CAT_ID":61071,"ELEMENT_SET_NO":999,"REV_AT_EPOCH":8183,"BSTAR":0.0003372463,"MEAN_MOTION_DOT":6.252e-5,"MEAN_MOTION_DDOT":0}]
